[{"OBJECT_NAME":"STARLINK-6235","OBJECT_ID":"2023-088AY","EPOCH":"2026-03-09T22:00:01.999584","MEAN_MOTION":15.06741931,"ECCENTRICITY":0.00010958,"INCLINATION":43.0008,"RA_OF_ASC_NODE":92.9262,"ARG_OF_PERICENTER":310.061,"MEAN_ANOMALY":184.0636,"EPHEMERIS_TYPE":0,"CLASSIFICATION_TYPE":"U","NORAD_CAT_ID":57094,"ELEMENT_SET_NO":999,"REV_AT_EPOCH":577,"BSTAR":0.0034794355,"MEAN_MOTION_DOT":0.00052796,"MEAN_MOTION_DDOT":0},{"OBJECT_NAME":"ICEYE-X65","OBJECT_ID":"2025-248H","EPOCH":"2026-03-09T01:43:36.801408","MEAN_MOTION":15.08278623,"ECCENTRICITY":0.0005141,"INCLINATION":45.3996,"RA_OF_ASC_NODE":300.9889,"ARG_OF_PERICENTER":200.5324,"MEAN_ANOMALY":159.5352,"EPHEMERIS_TYPE":0,"CLASSIFICATION_TYPE":"U","NORAD_CAT_ID":66300,"ELEMENT_SET_NO":999,"REV_AT_EPOCH":2040,"BSTAR":0.00023069723,"MEAN_MOTION_DOT":3.385e-5,"MEAN_MOTION_DDOT":0}]
